[
    {
        "Altitude(m)": 612513.8953903739,
        "Argument of Periapsis(deg)": 0.0,
        "Eccentricity": 0.0,
        "Inclination(deg)": 60.0,
        "Latitude(deg)": -28.13584606841574,
        "Longitude(deg)": 102.91311093929855,
        "Mean Anomaly(deg)": 212.7273,
        "RAAN(deg)": 5.0,
        "Satellite Name": "Test1 35",
        "Satellite Number": 35,
        "Semi-Major Axis(m)": 6980739.136638005,
        "Time(s)": 0
    },
    {
        "Altitude(m)": 612708.2629530336,
        "Argument of Periapsis(deg)": 0.00010418945913296404,
        "Eccentricity": 0.0,
        "Inclination(deg)": 60.0,
        "Latitude(deg)": -28.64758528693739,
        "Longitude(deg)": 103.27034083532038,
        "Mean Anomaly(deg)": 213.34740614546183,
        "RAAN(deg)": 4.999579950860257,
        "Satellite Name": "Test1 35",
        "Satellite Number": 35,
        "Semi-Major Axis(m)": 6980739.136638005,
        "Time(s)": 10
    }
]